{
  "norad_id": 62432,
  "name": "STARLINK-32702",
  "history": [
    {
      "epoch": "2026-03-28T17:29:07.864800Z",
      "apogee_km": 475.9438432748357,
      "perigee_km": 474.45886192059515,
      "latitude_deg": -1.0882006296612635e-05,
      "longitude_deg": 155.58218132468318,
      "height_km": 475.87818595388575,
      "semi_major_axis_km": 6853.338352597715,
      "eccentricity": 0.00010834,
      "inclination_deg": 53.1571,
      "raan_deg": 244.0098,
      "arg_perigee_deg": 72.6629,
      "mean_anomaly_deg": 287.449,
      "mean_motion_rev_day": 15.30204594
    },
    {
      "epoch": "2026-03-28T22:11:17.435040Z",
      "apogee_km": 475.92637157470017,
      "perigee_km": 474.47757571567126,
      "latitude_deg": 1.8192914319924705e-05,
      "longitude_deg": 83.93839559466075,
      "height_km": 475.8944715008945,
      "semi_major_axis_km": 6853.338973645185,
      "eccentricity": 0.0001057,
      "inclination_deg": 53.1573,
      "raan_deg": 243.099,
      "arg_perigee_deg": 73.5085,
      "mean_anomaly_deg": 286.6032,
      "mean_motion_rev_day": 15.30204386
    },
    {
      "epoch": "2026-03-30T02:24:14.998176Z",
      "apogee_km": 475.9503897761406,
      "perigee_km": 474.37193814301827,
      "latitude_deg": 3.025880403972408e-05,
      "longitude_deg": 14.079269256044983,
      "height_km": 476.07750463092196,
      "semi_major_axis_km": 6853.298163959579,
      "eccentricity": 0.00011516,
      "inclination_deg": 53.1572,
      "raan_deg": 237.6385,
      "arg_perigee_deg": 91.3361,
      "mean_anomaly_deg": 268.7772,
      "mean_motion_rev_day": 15.30218054
    },
    {
      "epoch": "2026-03-30T13:22:37.388352Z",
      "apogee_km": 475.85553204286134,
      "perigee_km": 474.489941544708,
      "latitude_deg": -5.549360624230878e-05,
      "longitude_deg": -153.0889269328522,
      "height_km": 476.10915572498465,
      "semi_major_axis_km": 6853.309736793784,
      "eccentricity": 9.963e-05,
      "inclination_deg": 53.1573,
      "raan_deg": 235.5143,
      "arg_perigee_deg": 93.2113,
      "mean_anomaly_deg": 266.9001,
      "mean_motion_rev_day": 15.30214178
    },
    {
      "epoch": "2026-03-30T16:30:43.982784Z",
      "apogee_km": 475.980199988624,
      "perigee_km": 474.5231695542416,
      "latitude_deg": -2.0424097413048046e-05,
      "longitude_deg": 159.14796589269665,
      "height_km": 476.1053502805127,
      "semi_major_axis_km": 6853.388684771433,
      "eccentricity": 0.0001063,
      "inclination_deg": 53.1574,
      "raan_deg": 234.9074,
      "arg_perigee_deg": 86.5049,
      "mean_anomaly_deg": 273.6073,
      "mean_motion_rev_day": 15.30187737
    },
    {
      "epoch": "2026-03-31T19:09:38.538144Z",
      "apogee_km": 476.1184908149862,
      "perigee_km": 474.45996166823534,
      "latitude_deg": 5.321779575349896e-05,
      "longitude_deg": 113.16819374700104,
      "height_km": 475.99066539206615,
      "semi_major_axis_km": 6853.4262262416105,
      "eccentricity": 0.000121,
      "inclination_deg": 53.1582,
      "raan_deg": 229.7493,
      "arg_perigee_deg": 76.2889,
      "mean_anomaly_deg": 283.8247,
      "mean_motion_rev_day": 15.30175164
    },
    {
      "epoch": "2026-04-01T15:32:19.819104Z",
      "apogee_km": 476.0864799409228,
      "perigee_km": 474.30324299056883,
      "latitude_deg": -3.79378324705719e-05,
      "longitude_deg": 162.71552270093053,
      "height_km": 475.97572790046576,
      "semi_major_axis_km": 6853.3318614657455,
      "eccentricity": 0.0001301,
      "inclination_deg": 53.1589,
      "raan_deg": 225.8056,
      "arg_perigee_deg": 82.455,
      "mean_anomaly_deg": 277.6598,
      "mean_motion_rev_day": 15.30206768
    },
    {
      "epoch": "2026-04-02T15:03:07.624512Z",
      "apogee_km": 478.26184421159087,
      "perigee_km": 471.9675437257829,
      "latitude_deg": -3.184008883460558e-06,
      "longitude_deg": 164.50170420080656,
      "height_km": 476.282462942874,
      "semi_major_axis_km": 6853.251693968687,
      "eccentricity": 0.00045922,
      "inclination_deg": 53.1604,
      "raan_deg": 221.2566,
      "arg_perigee_deg": 95.0115,
      "mean_anomaly_deg": 265.141,
      "mean_motion_rev_day": 15.30233618
    }
  ]
}